{"type": "FeatureCollection", "features": [ {"type": "Feature", "properties": {"norad_id": 66475, "name": "STARLINK-35538", "group": "last-30-days", "lat": 36.951627402460005, "lon": 137.25698416149612, "alt_km": 409.7337091821628, "timestamp": "2025-12-10T14:53:35.945900+00:00", "meta": {"OBJECT_NAME": "STARLINK-35538", "OBJECT_ID": "2025-262V", "EPOCH": "2025-12-10T05:21:10.827072", "MEAN_MOTION": 15.50650368, "ECCENTRICITY": 0.00020111, "INCLINATION": 43.0004, "RA_OF_ASC_NODE": 85.7565, "ARG_OF_PERICENTER": 262.2771, "MEAN_ANOMALY": 97.7861, "EPHEMERIS_TYPE": 0, "CLASSIFICATION_TYPE": "U", "NORAD_CAT_ID": 66475, "ELEMENT_SET_NO": 999, "REV_AT_EPOCH": 517, "BSTAR": 0.0032715974, "MEAN_MOTION_DOT": 0.00196997, "MEAN_MOTION_DDOT": 0}, "tle": {"line1": "1 66475U 25262V   25344.22304198  .00196997  00000+0  32716-2 0  9993", "line2": "2 66475  43.0004  85.7565 0002011 262.2771  97.7861 15.50650368  5178"}}, "geometry": {"type": "Point", "coordinates": [137.25698416149612, 36.951627402460005]}}, {"type": "Feature", "properties": {"norad_id": 66476, "name": "STARLINK-35372", "group": "last-30-days", "lat": 37.70237385464843, "lon": 139.47085469798697, "alt_km": 409.7908593763441, "timestamp": "2025-12-10T14:53:35.945910+00:00", "meta": {"OBJECT_NAME": "STARLINK-35372", "OBJECT_ID": "2025-262W", "EPOCH": "2025-12-10T06:53:26.288448", "MEAN_MOTION": 15.50673455, "ECCENTRICITY": 0.00021587, "INCLINATION": 43.0003, "RA_OF_ASC_NODE": 85.3772, "ARG_OF_PERICENTER": 253.9421, "MEAN_ANOMALY": 106.1201, "EPHEMERIS_TYPE": 0, "CLASSIFICATION_TYPE": "U", "NORAD_CAT_ID": 66476, "ELEMENT_SET_NO": 999, "REV_AT_EPOCH": 507, "BSTAR": 0.003320816, "MEAN_MOTION_DOT": 0.00200214, "MEAN_MOTION_DDOT": 0}, "tle": {"line1": "1 66476U 25262W   25344.28710982  .00200214  00000+0  33208-2 0  9997", "line2": "2 66476  43.0003  85.3772 0002158 253.9421 106.1201 15.50673455  5079"}}, "geometry": {"type": "Point", "coordinates": [139.47085469798697, 37.70237385464843]}}, {"type": "Feature", "properties": {"norad_id": 66477, "name": "STARLINK-35354", "group": "last-30-days", "lat": 39.05454903513481, "lon": 143.954817134857, "alt_km": 409.3754409445719, "timestamp": "2025-12-10T14:53:35.945919+00:00", "meta": {"OBJECT_NAME": "STARLINK-35354", "OBJECT_ID": "2025-262X", "EPOCH": "2025-12-10T06:52:27.177888", "MEAN_MOTION": 15.50632717, "ECCENTRICITY": 0.00015738, "INCLINATION": 43.0003, "RA_OF_ASC_NODE": 85.3708, "ARG_OF_PERICENTER": 242.9457, "MEAN_ANOMALY": 117.1242, "EPHEMERIS_TYPE": 0, "CLASSIFICATION_TYPE": "U", "NORAD_CAT_ID": 66477, "ELEMENT_SET_NO": 999, "REV_AT_EPOCH": 518, "BSTAR": 0.002970893, "MEAN_MOTION_DOT": 0.00178315, "MEAN_MOTION_DDOT": 0}, "tle": {"line1": "1 66477U 25262X   25344.28642567  .00178315  00000+0  29709-2 0  9998", "line2": "2 66477  43.0003  85.3708 0001573 242.9457 117.1242 15.50632717  5181"}}, "geometry": {"type": "Point", "coordinates": [143.954817134857, 39.05454903513481]}}, {"type": "Feature", "properties": {"norad_id": 66478, "name": "STARLINK-35283", "group": "last-30-days", "lat": 39.6589138395939, "lon": 146.23820564656504, "alt_km": 409.517708141555, "timestamp": "2025-12-10T14:53:35.945928+00:00", "meta": {"OBJECT_NAME": "STARLINK-35283", "OBJECT_ID": "2025-262Y", "EPOCH": "2025-12-10T06:51:57.652416", "MEAN_MOTION": 15.50615256, "ECCENTRICITY": 0.00017818, "INCLINATION": 42.9999, "RA_OF_ASC_NODE": 85.3674, "ARG_OF_PERICENTER": 268.2109, "MEAN_ANOMALY": 91.8547, "EPHEMERIS_TYPE": 0, "CLASSIFICATION_TYPE": "U", "NORAD_CAT_ID": 66478, "ELEMENT_SET_NO": 999, "REV_AT_EPOCH": 518, "BSTAR": 0.0019113471, "MEAN_MOTION_DOT": 0.00113576, "MEAN_MOTION_DDOT": 0}, "tle": {"line1": "1 66478U 25262Y   25344.28608394  .00113576  00000+0  19113-2 0  9995", "line2": "2 66478  42.9999  85.3674 0001781 268.2109  91.8547 15.50615256  5187"}}, "geometry": {"type": "Point", "coordinates": [146.23820564656504, 39.6589138395939]}}, {"type": "Feature", "properties": {"norad_id": 66479, "name": "STARLINK-35581", "group": "last-30-days", "lat": 38.372954212481865, "lon": 141.60153000663618, "alt_km": 409.5724830474437, "timestamp": "2025-12-10T14:53:35.945937+00:00", "meta": {"OBJECT_NAME": "STARLINK-35581", "OBJECT_ID": "2025-262Z", "EPOCH": "2025-12-10T06:52:56.895168", "MEAN_MOTION": 15.5061349, "ECCENTRICITY": 0.00015185, "INCLINATION": 43, "RA_OF_ASC_NODE": 85.372, "ARG_OF_PERICENTER": 248.3533, "MEAN_ANOMALY": 111.7166, "EPHEMERIS_TYPE": 0, "CLASSIFICATION_TYPE": "U", "NORAD_CAT_ID": 66479, "ELEMENT_SET_NO": 999, "REV_AT_EPOCH": 518, "BSTAR": 0.0023368238, "MEAN_MOTION_DOT": 0.00139388, "MEAN_MOTION_DDOT": 0}, "tle": {"line1": "1 66479U 25262Z   25344.28676962  .00139388  00000+0  23368-2 0  9998", "line2": "2 66479  43.0000  85.3720 0001518 248.3533 111.7166 15.50613490  5180"}}, "geometry": {"type": "Point", "coordinates": [141.60153000663618, 38.372954212481865]}}, {"type": "Feature", "properties": {"norad_id": 66480, "name": "STARLINK-35670", "group": "last-30-days", "lat": 40.274421648364395, "lon": 148.80673099119943, "alt_km": 408.8665653924172, "timestamp": "2025-12-10T14:53:35.945946+00:00", "meta": {"OBJECT_NAME": "STARLINK-35670", "OBJECT_ID": "2025-262AA", "EPOCH": "2025-12-10T05:18:42.694272", "MEAN_MOTION": 15.50668648, "ECCENTRICITY": 0.00015012, "INCLINATION": 43.0005, "RA_OF_ASC_NODE": 85.7416, "ARG_OF_PERICENTER": 265.8013, "MEAN_ANOMALY": 94.2676, "EPHEMERIS_TYPE": 0, "CLASSIFICATION_TYPE": "U", "NORAD_CAT_ID": 66480, "ELEMENT_SET_NO": 999, "REV_AT_EPOCH": 517, "BSTAR": 0.003338251, "MEAN_MOTION_DOT": 0.00201258, "MEAN_MOTION_DDOT": 0}, "tle": {"line1": "1 66480U 25262AA  25344.22132748  .00201258  00000+0  33383-2 0  9997", "line2": "2 66480  43.0005  85.7416 0001501 265.8013  94.2676 15.50668648  5177"}}, "geometry": {"type": "Point", "coordinates": [148.80673099119943, 40.274421648364395]}}, {"type": "Feature", "properties": {"norad_id": 66481, "name": "STARLINK-35698", "group": "last-30-days", "lat": 40.76483156310229, "lon": 151.09301382587788, "alt_km": 409.3525335769582, "timestamp": "2025-12-10T14:53:35.945967+00:00", "meta": {"OBJECT_NAME": "STARLINK-35698", "OBJECT_ID": "2025-262AB", "EPOCH": "2025-12-10T06:50:58.322400", "MEAN_MOTION": 15.50638401, "ECCENTRICITY": 0.00019158, "INCLINATION": 42.9999, "RA_OF_ASC_NODE": 85.3616, "ARG_OF_PERICENTER": 269.4199, "MEAN_ANOMALY": 90.6442, "EPHEMERIS_TYPE": 0, "CLASSIFICATION_TYPE": "U", "NORAD_CAT_ID": 66481, "ELEMENT_SET_NO": 999, "REV_AT_EPOCH": 518, "BSTAR": 0.0021699099, "MEAN_MOTION_DOT": 0.00129356, "MEAN_MOTION_DDOT": 0}, "tle": {"line1": "1 66481U 25262AB  25344.28539725  .00129356  00000+0  21699-2 0  9995", "line2": "2 66481  42.9999  85.3616 0001915 269.4199  90.6442 15.50638401  5186"}}, "geometry": {"type": "Point", "coordinates": [151.09301382587788, 40.76483156310229]}}, {"type": "Feature", "properties": {"norad_id": 66482, "name": "STARLINK-35648", "group": "last-30-days", "lat": 41.230511462451425, "lon": 153.52678776048526, "alt_km": 409.2958936287923, "timestamp": "2025-12-10T14:53:35.945976+00:00", "meta": {"OBJECT_NAME": "STARLINK-35648", "OBJECT_ID": "2025-262AC", "EPOCH": "2025-12-10T06:50:28.729536", "MEAN_MOTION": 15.50627802, "ECCENTRICITY": 0.00018528, "INCLINATION": 42.9999, "RA_OF_ASC_NODE": 85.3588, "ARG_OF_PERICENTER": 272.3466, "MEAN_ANOMALY": 87.7182, "EPHEMERIS_TYPE": 0, "CLASSIFICATION_TYPE": "U", "NORAD_CAT_ID": 66482, "ELEMENT_SET_NO": 999, "REV_AT_EPOCH": 502, "BSTAR": 0.0018955365, "MEAN_MOTION_DOT": 0.00112672, "MEAN_MOTION_DDOT": 0}, "tle": {"line1": "1 66482U 25262AC  25344.28505474  .00112672  00000+0  18955-2 0  9994", "line2": "2 66482  42.9999  85.3588 0001852 272.3466  87.7182 15.50627802  5029"}}, "geometry": {"type": "Point", "coordinates": [153.52678776048526, 41.230511462451425]}}, {"type": "Feature", "properties": {"norad_id": 66483, "name": "STARLINK-35654", "group": "last-30-days", "lat": 41.6508311009576, "lon": 156.03469233159697, "alt_km": 409.3264698617786, "timestamp": "2025-12-10T14:53:35.945987+00:00", "meta": {"OBJECT_NAME": "STARLINK-35654", "OBJECT_ID": "2025-262AD", "EPOCH": "2025-12-10T06:49:59.005344", "MEAN_MOTION": 15.50634405, "ECCENTRICITY": 0.00019533, "INCLINATION": 43.0002, "RA_OF_ASC_NODE": 85.3554, "ARG_OF_PERICENTER": 264.4285, "MEAN_ANOMALY": 95.6352, "EPHEMERIS_TYPE": 0, "CLASSIFICATION_TYPE": "U", "NORAD_CAT_ID": 66483, "ELEMENT_SET_NO": 999, "REV_AT_EPOCH": 518, "BSTAR": 0.0019486074, "MEAN_MOTION_DOT": 0.00115912, "MEAN_MOTION_DDOT": 0}, "tle": {"line1": "1 66483U 25262AD  25344.28471071  .00115912  00000+0  19486-2 0  9990", "line2": "2 66483  43.0002  85.3554 0001953 264.4285  95.6352 15.50634405  5184"}}, "geometry": {"type": "Point", "coordinates": [156.03469233159697, 41.6508311009576]}}, {"type": "Feature", "properties": {"norad_id": 66484, "name": "STARLINK-35371", "group": "last-30-days", "lat": 42.02375624830615, "lon": 158.6371675627544, "alt_km": 409.21841807872624, "timestamp": "2025-12-10T14:53:35.945998+00:00", "meta": {"OBJECT_NAME": "STARLINK-35371", "OBJECT_ID": "2025-262AE", "EPOCH": "2025-12-10T06:49:29.229312", "MEAN_MOTION": 15.50660369, "ECCENTRICITY": 0.00021232, "INCLINATION": 43.0003, "RA_OF_ASC_NODE": 85.3531, "ARG_OF_PERICENTER": 263.9815, "MEAN_ANOMALY": 96.0803, "EPHEMERIS_TYPE": 0, "CLASSIFICATION_TYPE": "U", "NORAD_CAT_ID": 66484, "ELEMENT_SET_NO": 999, "REV_AT_EPOCH": 518, "BSTAR": 0.0027723147, "MEAN_MOTION_DOT": 0.00166282, "MEAN_MOTION_DDOT": 0}, "tle": {"line1": "1 66484U 25262AE  25344.28436608  .00166282  00000+0  27723-2 0  9997", "line2": "2 66484  43.0003  85.3531 0002123 263.9815  96.0803 15.50660369  5188"}}, "geometry": {"type": "Point", "coordinates": [158.6371675627544, 42.02375624830615]}}]}